MALLIGYONG-1            
1 58400U 23179A   24027.82370908  .00007822  00000+0  34309-3 0  9991
2 58400  97.4237 276.7221 0017143  46.7013 313.5650 15.22113125 10226
